[Satellite]
VERSION=1.1
NAME=TERRASAR-X
NICKNAME=TERRASAR-X
TLE1=1 31698U 07026A   15055.48828502 -.00000666  00000-0 -28551-4 0  9990
TLE2=2 31698  97.4449  64.1751 0001722  79.7731  73.0275 15.19145560426784
